KUIPER-00152            
1 65772U 25217L   25343.66668981  .00080333  00000+0  21413-2 0  9990
2 65772  51.8707  78.7941 0002707 336.9433 195.9794 15.37450392  2072
KUIPER-00153            
1 65773U 25217M   25343.52355082  .00015476  00000+0  92883-3 0  9997
2 65773  51.8777  87.0459 0012587   8.9034 351.2163 15.11029005 11451
KUIPER-00155            
1 65774U 25217N   25343.64511949  .00061298  00000+0  16363-2 0  9998
2 65774  51.8662  79.7046 0007206   2.9504 357.1524 15.37509543 11569
KUIPER-00156            
1 65775U 25217P   25343.64178033  .00065053  00000+0  16615-2 0  9995
2 65775  51.8722  78.9863 0002795 347.6373  12.4545 15.38862207 11571
KUIPER-00158            
1 65776U 25217Q   25343.66668981  .00039088  00000+0  32900-2 0  9998
2 65776  51.8877  84.4711 0005329 349.8432 315.1538 14.97853170  5406
KUIPER-00163            
1 65777U 25217R   25343.66668981  .00033123  00000+0  32993-2 0  9995
2 65777  51.8908  86.4152 0011854  16.5999 268.6708 14.91262031  5268
KUIPER-00165            
1 65778U 25217S   25343.53491845  .00032921  00000+0  11896-2 0  9999
2 65778  51.8799  80.4554 0005039 340.8169  19.2623 15.28157334 11541
KUIPER-00166            
1 65779U 25217T   25343.46156808  .00057637  00000+0  14830-2 0  9991
2 65779  51.8725  80.0212 0003501 325.0903  34.9855 15.38687403 11548
